{"type": "FeatureCollection", "features": [ {"type": "Feature", "properties": {"norad_id": 30435, "name": "FENGYUN 1C DEB", "group": "fengyun-1c-debris", "lat": -22.817804878706493, "lon": -8.716881551352886, "alt_km": 978.6633753314363, "timestamp": "2025-12-27T21:25:02.790512+00:00", "meta": {"OBJECT_NAME": "FENGYUN 1C DEB", "OBJECT_ID": "1999-025AEW", "EPOCH": "2025-12-27T10:04:25.454784", "MEAN_MOTION": 13.7967482, "ECCENTRICITY": 0.0209098, "INCLINATION": 99.0182, "RA_OF_ASC_NODE": 347.0015, "ARG_OF_PERICENTER": 72.5558, "MEAN_ANOMALY": 80.4933, "EPHEMERIS_TYPE": 0, "CLASSIFICATION_TYPE": "U", "NORAD_CAT_ID": 30435, "ELEMENT_SET_NO": 999, "REV_AT_EPOCH": 94362, "BSTAR": 0.0017588, "MEAN_MOTION_DOT": 2.1e-05, "MEAN_MOTION_DDOT": 0}, "tle": {"line1": "1 30435U 99025AEW 25361.41973906  .00002100  00000+0  17588-2 0  9999", "line2": "2 30435  99.0182 347.0015 0209098  72.5558  80.4933 13.79674820943624"}}, "geometry": {"type": "Point", "coordinates": [-8.716881551352886, -22.817804878706493]}}, {"type": "Feature", "properties": {"norad_id": 30436, "name": "FENGYUN 1C DEB", "group": "fengyun-1c-debris", "lat": -16.60690279849575, "lon": 72.6974564801926, "alt_km": 842.540099984496, "timestamp": "2025-12-27T21:25:02.790523+00:00", "meta": {"OBJECT_NAME": "FENGYUN 1C DEB", "OBJECT_ID": "1999-025AEX", "EPOCH": "2025-12-27T05:52:26.070816", "MEAN_MOTION": 14.22419013, "ECCENTRICITY": 0.0098515, "INCLINATION": 98.4264, "RA_OF_ASC_NODE": 254.612, "ARG_OF_PERICENTER": 91.1648, "MEAN_ANOMALY": 29.9014, "EPHEMERIS_TYPE": 0, "CLASSIFICATION_TYPE": "U", "NORAD_CAT_ID": 30436, "ELEMENT_SET_NO": 999, "REV_AT_EPOCH": 96643, "BSTAR": 0.0022735, "MEAN_MOTION_DOT": 5.284e-05, "MEAN_MOTION_DDOT": 0}, "tle": {"line1": "1 30436U 99025AEX 25361.24474619  .00005284  00000+0  22735-2 0  9994", "line2": "2 30436  98.4264 254.6120 0098515  91.1648  29.9014 14.22419013966438"}}, "geometry": {"type": "Point", "coordinates": [72.6974564801926, -16.60690279849575]}}, {"type": "Feature", "properties": {"norad_id": 30437, "name": "FENGYUN 1C DEB", "group": "fengyun-1c-debris", "lat": -79.38871872744322, "lon": 80.52263113489913, "alt_km": 627.9804759114104, "timestamp": "2025-12-27T21:25:02.790533+00:00", "meta": {"OBJECT_NAME": "FENGYUN 1C DEB", "OBJECT_ID": "1999-025AEY", "EPOCH": "2025-12-26T14:05:37.752000", "MEAN_MOTION": 14.8860203, "ECCENTRICITY": 0.0035173, "INCLINATION": 98.9215, "RA_OF_ASC_NODE": 22.0751, "ARG_OF_PERICENTER": 59.1165, "MEAN_ANOMALY": 66.6992, "EPHEMERIS_TYPE": 0, "CLASSIFICATION_TYPE": "U", "NORAD_CAT_ID": 30437, "ELEMENT_SET_NO": 999, "REV_AT_EPOCH": 99393, "BSTAR": 0.0022578, "MEAN_MOTION_DOT": 0.00021263, "MEAN_MOTION_DDOT": 0}, "tle": {"line1": "1 30437U 99025AEY 25360.58724250  .00021263  00000+0  22578-2 0  9990", "line2": "2 30437  98.9215  22.0751 0035173  59.1165  66.6992 14.88602030993939"}}, "geometry": {"type": "Point", "coordinates": [80.52263113489913, -79.38871872744322]}}, {"type": "Feature", "properties": {"norad_id": 30438, "name": "FENGYUN 1C DEB", "group": "fengyun-1c-debris", "lat": -66.0902130252791, "lon": 177.75057985743106, "alt_km": 947.991408332171, "timestamp": "2025-12-27T21:25:02.790544+00:00", "meta": {"OBJECT_NAME": "FENGYUN 1C DEB", "OBJECT_ID": "1999-025AEZ", "EPOCH": "2025-12-27T11:37:06.574368", "MEAN_MOTION": 13.92150592, "ECCENTRICITY": 0.0134897, "INCLINATION": 98.7495, "RA_OF_ASC_NODE": 17.6912, "ARG_OF_PERICENTER": 146.4446, "MEAN_ANOMALY": 214.5351, "EPHEMERIS_TYPE": 0, "CLASSIFICATION_TYPE": "U", "NORAD_CAT_ID": 30438, "ELEMENT_SET_NO": 999, "REV_AT_EPOCH": 95511, "BSTAR": 0.0014232, "MEAN_MOTION_DOT": 1.923e-05, "MEAN_MOTION_DDOT": 0}, "tle": {"line1": "1 30438U 99025AEZ 25361.48410387  .00001923  00000+0  14232-2 0  9993", "line2": "2 30438  98.7495  17.6912 0134897 146.4446 214.5351 13.92150592955118"}}, "geometry": {"type": "Point", "coordinates": [177.75057985743106, -66.0902130252791]}}, {"type": "Feature", "properties": {"norad_id": 30439, "name": "FENGYUN 1C DEB", "group": "fengyun-1c-debris", "lat": 5.827083263038438, "lon": 12.26178669868828, "alt_km": 857.0171268104423, "timestamp": "2025-12-27T21:25:02.790554+00:00", "meta": {"OBJECT_NAME": "FENGYUN 1C DEB", "OBJECT_ID": "1999-025AFA", "EPOCH": "2025-12-26T12:02:03.253056", "MEAN_MOTION": 14.08863263, "ECCENTRICITY": 0.0038262, "INCLINATION": 98.7499, "RA_OF_ASC_NODE": 11.8123, "ARG_OF_PERICENTER": 297.2555, "MEAN_ANOMALY": 217.4046, "EPHEMERIS_TYPE": 0, "CLASSIFICATION_TYPE": "U", "NORAD_CAT_ID": 30439, "ELEMENT_SET_NO": 999, "REV_AT_EPOCH": 96985, "BSTAR": 0.00053477, "MEAN_MOTION_DOT": 8.87e-06, "MEAN_MOTION_DDOT": 0}, "tle": {"line1": "1 30439U 99025AFA 25360.50142654  .00000887  00000+0  53477-3 0  9998", "line2": "2 30439  98.7499  11.8123 0038262 297.2555 217.4046 14.08863263969851"}}, "geometry": {"type": "Point", "coordinates": [12.26178669868828, 5.827083263038438]}}, {"type": "Feature", "properties": {"norad_id": 30441, "name": "FENGYUN 1C DEB", "group": "fengyun-1c-debris", "lat": 63.523522167078404, "lon": -70.46971095036982, "alt_km": 992.9268066869981, "timestamp": "2025-12-27T21:25:02.790567+00:00", "meta": {"OBJECT_NAME": "FENGYUN 1C DEB", "OBJECT_ID": "1999-025AFC", "EPOCH": "2025-12-27T05:09:30.155904", "MEAN_MOTION": 13.77698048, "ECCENTRICITY": 0.0184487, "INCLINATION": 99.1337, "RA_OF_ASC_NODE": 90.0342, "ARG_OF_PERICENTER": 219.2757, "MEAN_ANOMALY": 139.4891, "EPHEMERIS_TYPE": 0, "CLASSIFICATION_TYPE": "U", "NORAD_CAT_ID": 30441, "ELEMENT_SET_NO": 999, "REV_AT_EPOCH": 95069, "BSTAR": 0.00065614, "MEAN_MOTION_DOT": 7e-06, "MEAN_MOTION_DDOT": 0}, "tle": {"line1": "1 30441U 99025AFC 25361.21493236  .00000700  00000+0  65614-3 0  9995", "line2": "2 30441  99.1337  90.0342 0184487 219.2757 139.4891 13.77698048950696"}}, "geometry": {"type": "Point", "coordinates": [-70.46971095036982, 63.523522167078404]}}, {"type": "Feature", "properties": {"norad_id": 30442, "name": "FENGYUN 1C DEB", "group": "fengyun-1c-debris", "lat": 62.324862821962405, "lon": 78.41954446549006, "alt_km": 829.8381299556795, "timestamp": "2025-12-27T21:25:02.790577+00:00", "meta": {"OBJECT_NAME": "FENGYUN 1C DEB", "OBJECT_ID": "1999-025AFD", "EPOCH": "2025-12-27T05:59:28.476096", "MEAN_MOTION": 14.28762018, "ECCENTRICITY": 0.0055892, "INCLINATION": 98.8667, "RA_OF_ASC_NODE": 95.0824, "ARG_OF_PERICENTER": 245.1158, "MEAN_ANOMALY": 114.4206, "EPHEMERIS_TYPE": 0, "CLASSIFICATION_TYPE": "U", "NORAD_CAT_ID": 30442, "ELEMENT_SET_NO": 999, "REV_AT_EPOCH": 97369, "BSTAR": 0.0024866, "MEAN_MOTION_DOT": 6.326e-05, "MEAN_MOTION_DDOT": 0}, "tle": {"line1": "1 30442U 99025AFD 25361.24963514  .00006326  00000+0  24866-2 0  9993", "line2": "2 30442  98.8667  95.0824 0055892 245.1158 114.4206 14.28762018973693"}}, "geometry": {"type": "Point", "coordinates": [78.41954446549006, 62.324862821962405]}}, {"type": "Feature", "properties": {"norad_id": 30443, "name": "FENGYUN 1C DEB", "group": "fengyun-1c-debris", "lat": -43.207589360454, "lon": -42.1550649960431, "alt_km": 757.3832651787734, "timestamp": "2025-12-27T21:25:02.790588+00:00", "meta": {"OBJECT_NAME": "FENGYUN 1C DEB", "OBJECT_ID": "1999-025AFE", "EPOCH": "2025-12-26T20:33:13.683168", "MEAN_MOTION": 14.36983936, "ECCENTRICITY": 0.00264245, "INCLINATION": 98.8495, "RA_OF_ASC_NODE": 308.3653, "ARG_OF_PERICENTER": 298.4797, "MEAN_ANOMALY": 61.3728, "EPHEMERIS_TYPE": 0, "CLASSIFICATION_TYPE": "U", "NORAD_CAT_ID": 30443, "ELEMENT_SET_NO": 999, "REV_AT_EPOCH": 97636, "BSTAR": 0.0025216313, "MEAN_MOTION_DOT": 7.463e-05, "MEAN_MOTION_DDOT": 0}, "tle": {"line1": "1 30443U 99025AFE 25360.85640837  .00007463  00000+0  25216-2 0  9993", "line2": "2 30443  98.8495 308.3653 0026424 298.4797  61.3728 14.36983936976361"}}, "geometry": {"type": "Point", "coordinates": [-42.1550649960431, -43.207589360454]}}, {"type": "Feature", "properties": {"norad_id": 30445, "name": "FENGYUN 1C DEB", "group": "fengyun-1c-debris", "lat": -44.320343048209565, "lon": 125.21153309802416, "alt_km": 758.4345510245184, "timestamp": "2025-12-27T21:25:02.790598+00:00", "meta": {"OBJECT_NAME": "FENGYUN 1C DEB", "OBJECT_ID": "1999-025AFG", "EPOCH": "2025-12-26T19:30:47.194272", "MEAN_MOTION": 14.48831324, "ECCENTRICITY": 0.01049747, "INCLINATION": 98.8368, "RA_OF_ASC_NODE": 312.8203, "ARG_OF_PERICENTER": 336.1321, "MEAN_ANOMALY": 23.5022, "EPHEMERIS_TYPE": 0, "CLASSIFICATION_TYPE": "U", "NORAD_CAT_ID": 30445, "ELEMENT_SET_NO": 999, "REV_AT_EPOCH": 99388, "BSTAR": 0.00089012662, "MEAN_MOTION_DOT": 3.554e-05, "MEAN_MOTION_DDOT": 0}, "tle": {"line1": "1 30445U 99025AFG 25360.81304623  .00003554  00000+0  89013-3 0  9994", "line2": "2 30445  98.8368 312.8203 0104974 336.1321  23.5022 14.48831324993882"}}, "geometry": {"type": "Point", "coordinates": [125.21153309802416, -44.320343048209565]}}, {"type": "Feature", "properties": {"norad_id": 30446, "name": "FENGYUN 1C DEB", "group": "fengyun-1c-debris", "lat": 30.803205365925006, "lon": -90.21575116521771, "alt_km": 743.0778700638348, "timestamp": "2025-12-27T21:25:02.790608+00:00", "meta": {"OBJECT_NAME": "FENGYUN 1C DEB", "OBJECT_ID": "1999-025AFH", "EPOCH": "2025-12-27T12:25:29.069184", "MEAN_MOTION": 14.44888532, "ECCENTRICITY": 0.0033776, "INCLINATION": 98.6124, "RA_OF_ASC_NODE": 84.2204, "ARG_OF_PERICENTER": 53.9435, "MEAN_ANOMALY": 306.4876, "EPHEMERIS_TYPE": 0, "CLASSIFICATION_TYPE": "U", "NORAD_CAT_ID": 30446, "ELEMENT_SET_NO": 999, "REV_AT_EPOCH": 98390, "BSTAR": 0.0017453, "MEAN_MOTION_DOT": 6.077e-05, "MEAN_MOTION_DDOT": 0}, "tle": {"line1": "1 30446U 99025AFH 25361.51769756  .00006077  00000+0  17453-2 0  9996", "line2": "2 30446  98.6124  84.2204 0033776  53.9435 306.4876 14.44888532983904"}}, "geometry": {"type": "Point", "coordinates": [-90.21575116521771, 30.803205365925006]}}]}